{
  "links" : {
    "next" : "https://api.nasa.gov/neo/rest/v1/feed?start_date=2010-07-23&end_date=2010-07-23&detailed=true&api_key=t0TVs3DtDT2H8Oy2Zy8m2eVrNsAVKAexjcZXUckd",
    "prev" : "https://api.nasa.gov/neo/rest/v1/feed?start_date=2010-07-21&end_date=2010-07-21&detailed=true&api_key=t0TVs3DtDT2H8Oy2Zy8m2eVrNsAVKAexjcZXUckd",
    "self" : "https://api.nasa.gov/neo/rest/v1/feed?start_date=2010-07-22&end_date=2010-07-22&detailed=true&api_key=t0TVs3DtDT2H8Oy2Zy8m2eVrNsAVKAexjcZXUckd"
  },
  "element_count" : 8,
  "near_earth_objects" : {
    "2010-07-22" : [ {
      "links" : {
        "self" : "https://api.nasa.gov/neo/rest/v1/neo/2442037?api_key=t0TVs3DtDT2H8Oy2Zy8m2eVrNsAVKAexjcZXUckd"
      },
      "neo_reference_id" : "2442037",
      "name" : "442037 (2010 PR66)",
      "nasa_jpl_url" : "http://ssd.jpl.nasa.gov/sbdb.cgi?sstr=2442037",
      "absolute_magnitude_h" : 19.3,
      "estimated_diameter" : {
        "kilometers" : {
          "estimated_diameter_min" : 0.3669061375,
          "estimated_diameter_max" : 0.8204270649
        },
        "meters" : {
          "estimated_diameter_min" : 366.9061375314,
          "estimated_diameter_max" : 820.4270648822
        },
        "miles" : {
          "estimated_diameter_min" : 0.2279848336,
          "estimated_diameter_max" : 0.5097895857
        },
        "feet" : {
          "estimated_diameter_min" : 1203.7603322587,
          "estimated_diameter_max" : 2691.6899315481
        }
      },
      "is_potentially_hazardous_asteroid" : true,
      "close_approach_data" : [ {
        "close_approach_date" : "2010-07-22",
        "epoch_date_close_approach" : 1279782000000,
        "relative_velocity" : {
          "kilometers_per_second" : "17.1559706948",
          "kilometers_per_hour" : "61761.4945011846",
          "miles_per_hour" : "38376.1908471388"
        },
        "miss_distance" : {
          "astronomical" : "0.0264444038",
          "lunar" : "10.2868728638",
          "kilometers" : "3956026.5",
          "miles" : "2458161"
        },
        "orbiting_body" : "Earth"
      } ],
      "orbital_data" : {
        "orbit_id" : "82",
        "orbit_determination_date" : "2017-04-06 09:20:28",
        "orbit_uncertainty" : "0",
        "minimum_orbit_intersection" : ".000639127",
        "jupiter_tisserand_invariant" : "2.816",
        "epoch_osculation" : "2458000.5",
        "eccentricity" : ".6866789126494657",
        "semi_major_axis" : "2.92906314676638",
        "inclination" : "17.57359889153978",
        "ascending_node_longitude" : "292.7795913924446",
        "orbital_period" : "1831.013425891744",
        "perihelion_distance" : ".9177372500632198",
        "perihelion_argument" : "319.4572022760437",
        "aphelion_distance" : "4.94038904346954",
        "perihelion_time" : "2457193.492212263277",
        "mean_anomaly" : "158.6677626045965",
        "mean_motion" : ".19661243053129",
        "equinox" : "J2000"
      }
    }, {
      "links" : {
        "self" : "https://api.nasa.gov/neo/rest/v1/neo/3409434?api_key=t0TVs3DtDT2H8Oy2Zy8m2eVrNsAVKAexjcZXUckd"
      },
      "neo_reference_id" : "3409434",
      "name" : "(2008 GD110)",
      "nasa_jpl_url" : "http://ssd.jpl.nasa.gov/sbdb.cgi?sstr=3409434",
      "absolute_magnitude_h" : 24.5,
      "estimated_diameter" : {
        "kilometers" : {
          "estimated_diameter_min" : 0.0334622374,
          "estimated_diameter_max" : 0.0748238376
        },
        "meters" : {
          "estimated_diameter_min" : 33.4622374455,
          "estimated_diameter_max" : 74.8238376074
        },
        "miles" : {
          "estimated_diameter_min" : 0.0207924639,
          "estimated_diameter_max" : 0.0464933628
        },
        "feet" : {
          "estimated_diameter_min" : 109.7842471007,
          "estimated_diameter_max" : 245.4850393757
        }
      },
      "is_potentially_hazardous_asteroid" : false,
      "close_approach_data" : [ {
        "close_approach_date" : "2010-07-22",
        "epoch_date_close_approach" : 1279782000000,
        "relative_velocity" : {
          "kilometers_per_second" : "8.6715025326",
          "kilometers_per_hour" : "31217.4091173928",
          "miles_per_hour" : "19397.2840151933"
        },
        "miss_distance" : {
          "astronomical" : "0.2619894712",
          "lunar" : "101.9139022827",
          "kilometers" : "39193068",
          "miles" : "24353444"
        },
        "orbiting_body" : "Earth"
      } ],
      "orbital_data" : {
        "orbit_id" : "12",
        "orbit_determination_date" : "2017-04-06 09:03:41",
        "orbit_uncertainty" : "6",
        "minimum_orbit_intersection" : ".000297692",
        "jupiter_tisserand_invariant" : "5.942",
        "epoch_osculation" : "2458000.5",
        "eccentricity" : ".2540868791771619",
        "semi_major_axis" : "1.022658410050449",
        "inclination" : "5.341970296203293",
        "ascending_node_longitude" : "213.1150111061882",
        "orbital_period" : "377.7411674291635",
        "perihelion_distance" : ".762814326176452",
        "perihelion_argument" : "100.9813705202626",
        "aphelion_distance" : "1.282502493924446",
        "perihelion_time" : "2458053.457075832077",
        "mean_anomaly" : "309.5301308319202",
        "mean_motion" : ".9530335347086827",
        "equinox" : "J2000"
      }
    }, {
      "links" : {
        "self" : "https://api.nasa.gov/neo/rest/v1/neo/3465534?api_key=t0TVs3DtDT2H8Oy2Zy8m2eVrNsAVKAexjcZXUckd"
      },
      "neo_reference_id" : "3465534",
      "name" : "(2009 PC)",
      "nasa_jpl_url" : "http://ssd.jpl.nasa.gov/sbdb.cgi?sstr=3465534",
      "absolute_magnitude_h" : 23.2,
      "estimated_diameter" : {
        "kilometers" : {
          "estimated_diameter_min" : 0.0608912622,
          "estimated_diameter_max" : 0.1361570015
        },
        "meters" : {
          "estimated_diameter_min" : 60.8912622106,
          "estimated_diameter_max" : 136.1570015386
        },
        "miles" : {
          "estimated_diameter_min" : 0.0378360645,
          "estimated_diameter_max" : 0.0846040122
        },
        "feet" : {
          "estimated_diameter_min" : 199.7744887109,
          "estimated_diameter_max" : 446.7093369279
        }
      },
      "is_potentially_hazardous_asteroid" : false,
      "close_approach_data" : [ {
        "close_approach_date" : "2010-07-22",
        "epoch_date_close_approach" : 1279782000000,
        "relative_velocity" : {
          "kilometers_per_second" : "7.8575575143",
          "kilometers_per_hour" : "28287.2070514432",
          "miles_per_hour" : "17576.5704037148"
        },
        "miss_distance" : {
          "astronomical" : "0.1239515527",
          "lunar" : "48.2171554565",
          "kilometers" : "18542888",
          "miles" : "11522017"
        },
        "orbiting_body" : "Earth"
      } ],
      "orbital_data" : {
        "orbit_id" : "9",
        "orbit_determination_date" : "2017-04-06 09:00:19",
        "orbit_uncertainty" : "7",
        "minimum_orbit_intersection" : ".038182",
        "jupiter_tisserand_invariant" : "6.041",
        "epoch_osculation" : "2458000.5",
        "eccentricity" : ".34267812941381",
        "semi_major_axis" : ".9958733282810075",
        "inclination" : "7.091489820325958",
        "ascending_node_longitude" : "134.3475514410248",
        "orbital_period" : "362.9982895067052",
        "perihelion_distance" : ".6546093190125667",
        "perihelion_argument" : "48.26353419735084",
        "aphelion_distance" : "1.337137337549448",
        "perihelion_time" : "2457856.370988436405",
        "mean_anomaly" : "142.9385362487662",
        "mean_motion" : ".9917402103718458",
        "equinox" : "J2000"
      }
    } ]
  }
}